1 00000U 18001Z   20001.00000000 +.00000145  00000-0 +32923-4 0  0017
2 00000  98.0000 163.0740 0005126 283.9502 076.0922 14.89338871563537